<?xml version="1.0" encoding="UTF-8"?>
<kml xmlns="http://www.opengis.net/kml/2.2">
  <Document>
    <name>19/05/2026</name>
    <description/>
    <Style id="icon-1529-0288D1-normal">
      <IconStyle>
        <scale>1</scale>
        <Icon>
          <href>images/icon-1.png</href>
        </Icon>
      </IconStyle>
      <LabelStyle>
        <scale>0</scale>
      </LabelStyle>
    </Style>
    <Style id="icon-1529-0288D1-highlight">
      <IconStyle>
        <scale>1</scale>
        <Icon>
          <href>images/icon-1.png</href>
        </Icon>
      </IconStyle>
      <LabelStyle>
        <scale>1</scale>
      </LabelStyle>
    </Style>
    <StyleMap id="icon-1529-0288D1">
      <Pair>
        <key>normal</key>
        <styleUrl>#icon-1529-0288D1-normal</styleUrl>
      </Pair>
      <Pair>
        <key>highlight</key>
        <styleUrl>#icon-1529-0288D1-highlight</styleUrl>
      </Pair>
    </StyleMap>
    <Folder>
      <name>20260519_mymaps.csv</name>
      <Placemark>
        <name>Sniffer 1</name>
        <description><![CDATA[Code: <br>Northing: 149,660.013<br>Easting: 353,327.887<br>Elevation: 27.169<br>Latitude: 1.3531164<br>Longitude: 103.6821741<br>Altitude: 27.169<br>Station Correction x: <br>Station Correction y: <br>Station Correction h: <br>Original Latitude: 1.353<br>Original Longitude: 103.682<br>Original Altitude: 29.235<br>Measuring type: Pole Height<br>Measuring height: 2<br>Antenna Height: 2.066<br>AGE: 1<br>Local time: 2026-05-19 16:24:35.000<br>Solution Status: FIXED<br>Used satellites: 20<br>Tracked satellites: 21<br>Measurement Method: Smooth Point<br>Repeat Count: 5<br>N: 0.001<br>E: 0.001<br>HRMS: 0.01<br>VRMS: 0.026<br>PDOP: 1.44<br>HDOP: 1.28<br>VDOP: 1.28<br>Base ID: 11<br>Base Latitude: 1.346<br>Base Longitude: 103.68<br>Base Altitude: 76.246<br>Distance to Ref: 847.403<br>Inclination correction: Not Set<br>Pitch: 0<br>Roll: 0<br>Yaw: 0<br>Inclined angle: 0°0000.0000<br>Projected angle: 0°0000.0000]]></description>
        <styleUrl>#icon-1529-0288D1</styleUrl>
        <ExtendedData>
          <Data name="Code">
            <value/>
          </Data>
          <Data name="Northing">
            <value>149660.0127</value>
          </Data>
          <Data name="Easting">
            <value>353327.887</value>
          </Data>
          <Data name="Elevation">
            <value>27.1691</value>
          </Data>
          <Data name="Latitude">
            <value>1.3531164</value>
          </Data>
          <Data name="Longitude">
            <value>103.6821741</value>
          </Data>
          <Data name="Altitude">
            <value>27.1691</value>
          </Data>
          <Data name="Station Correction x">
            <value/>
          </Data>
          <Data name="Station Correction y">
            <value/>
          </Data>
          <Data name="Station Correction h">
            <value/>
          </Data>
          <Data name="Original Latitude">
            <value>1.353116361111111</value>
          </Data>
          <Data name="Original Longitude">
            <value>103.68217411111111</value>
          </Data>
          <Data name="Original Altitude">
            <value>29.2351</value>
          </Data>
          <Data name="Measuring type">
            <value>Pole Height</value>
          </Data>
          <Data name="Measuring height">
            <value>2.0</value>
          </Data>
          <Data name="Antenna Height">
            <value>2.066</value>
          </Data>
          <Data name="AGE">
            <value>1.0</value>
          </Data>
          <Data name="Local time">
            <value>2026-05-19 16:24:35.000</value>
          </Data>
          <Data name="Solution Status">
            <value>FIXED</value>
          </Data>
          <Data name="Used satellites">
            <value>20.0</value>
          </Data>
          <Data name="Tracked satellites">
            <value>21.0</value>
          </Data>
          <Data name="Measurement Method">
            <value>Smooth Point</value>
          </Data>
          <Data name="Repeat Count">
            <value>5.0</value>
          </Data>
          <Data name="N">
            <value>8.0E-4</value>
          </Data>
          <Data name="E">
            <value>0.0012</value>
          </Data>
          <Data name="HRMS">
            <value>0.0099</value>
          </Data>
          <Data name="VRMS">
            <value>0.0256</value>
          </Data>
          <Data name="PDOP">
            <value>1.44</value>
          </Data>
          <Data name="HDOP">
            <value>1.28</value>
          </Data>
          <Data name="VDOP">
            <value>1.28</value>
          </Data>
          <Data name="Base ID">
            <value>11.0</value>
          </Data>
          <Data name="Base Latitude">
            <value>1.3457911388888888</value>
          </Data>
          <Data name="Base Longitude">
            <value>103.67997686111111</value>
          </Data>
          <Data name="Base Altitude">
            <value>76.2458</value>
          </Data>
          <Data name="Distance to Ref">
            <value>847.4032</value>
          </Data>
          <Data name="Inclination correction">
            <value>Not Set</value>
          </Data>
          <Data name="Pitch">
            <value>0.0</value>
          </Data>
          <Data name="Roll">
            <value>0.0</value>
          </Data>
          <Data name="Yaw">
            <value>0.0</value>
          </Data>
          <Data name="Inclined angle">
            <value>0°0000.0000</value>
          </Data>
          <Data name="Projected angle">
            <value>0°0000.0000</value>
          </Data>
        </ExtendedData>
        <Point>
          <coordinates>
            103.6821741,1.3531164,0
          </coordinates>
        </Point>
      </Placemark>
      <Placemark>
        <name>Sniffer 2</name>
        <description><![CDATA[Code: <br>Northing: 149,659.951<br>Easting: 353,327.811<br>Elevation: 27.148<br>Latitude: 1.3531158<br>Longitude: 103.6821734<br>Altitude: 27.148<br>Station Correction x: <br>Station Correction y: <br>Station Correction h: <br>Original Latitude: 1.353<br>Original Longitude: 103.682<br>Original Altitude: 29.214<br>Measuring type: Pole Height<br>Measuring height: 2<br>Antenna Height: 2.066<br>AGE: 3<br>Local time: 2026-05-19 16:25:02.000<br>Solution Status: FIXED<br>Used satellites: 34<br>Tracked satellites: 34<br>Measurement Method: Smooth Point<br>Repeat Count: 5<br>N: 0.001<br>E: 0.001<br>HRMS: 0.004<br>VRMS: 0.011<br>PDOP: 1<br>HDOP: 0.9<br>VDOP: 0.9<br>Base ID: 11<br>Base Latitude: 1.346<br>Base Longitude: 103.68<br>Base Altitude: 76.246<br>Distance to Ref: 847.323<br>Inclination correction: Not Set<br>Pitch: 0<br>Roll: 0<br>Yaw: 0<br>Inclined angle: 0°0000.0000<br>Projected angle: 0°0000.0000]]></description>
        <styleUrl>#icon-1529-0288D1</styleUrl>
        <ExtendedData>
          <Data name="Code">
            <value/>
          </Data>
          <Data name="Northing">
            <value>149659.9509</value>
          </Data>
          <Data name="Easting">
            <value>353327.8106</value>
          </Data>
          <Data name="Elevation">
            <value>27.1476</value>
          </Data>
          <Data name="Latitude">
            <value>1.3531158</value>
          </Data>
          <Data name="Longitude">
            <value>103.6821734</value>
          </Data>
          <Data name="Altitude">
            <value>27.1476</value>
          </Data>
          <Data name="Station Correction x">
            <value/>
          </Data>
          <Data name="Station Correction y">
            <value/>
          </Data>
          <Data name="Station Correction h">
            <value/>
          </Data>
          <Data name="Original Latitude">
            <value>1.3531158055555557</value>
          </Data>
          <Data name="Original Longitude">
            <value>103.68217341666667</value>
          </Data>
          <Data name="Original Altitude">
            <value>29.2136</value>
          </Data>
          <Data name="Measuring type">
            <value>Pole Height</value>
          </Data>
          <Data name="Measuring height">
            <value>2.0</value>
          </Data>
          <Data name="Antenna Height">
            <value>2.066</value>
          </Data>
          <Data name="AGE">
            <value>3.0</value>
          </Data>
          <Data name="Local time">
            <value>2026-05-19 16:25:02.000</value>
          </Data>
          <Data name="Solution Status">
            <value>FIXED</value>
          </Data>
          <Data name="Used satellites">
            <value>34.0</value>
          </Data>
          <Data name="Tracked satellites">
            <value>34.0</value>
          </Data>
          <Data name="Measurement Method">
            <value>Smooth Point</value>
          </Data>
          <Data name="Repeat Count">
            <value>5.0</value>
          </Data>
          <Data name="N">
            <value>6.0E-4</value>
          </Data>
          <Data name="E">
            <value>6.0E-4</value>
          </Data>
          <Data name="HRMS">
            <value>0.0042</value>
          </Data>
          <Data name="VRMS">
            <value>0.0112</value>
          </Data>
          <Data name="PDOP">
            <value>1.0</value>
          </Data>
          <Data name="HDOP">
            <value>0.9</value>
          </Data>
          <Data name="VDOP">
            <value>0.9</value>
          </Data>
          <Data name="Base ID">
            <value>11.0</value>
          </Data>
          <Data name="Base Latitude">
            <value>1.3457911388888888</value>
          </Data>
          <Data name="Base Longitude">
            <value>103.67997686111111</value>
          </Data>
          <Data name="Base Altitude">
            <value>76.2458</value>
          </Data>
          <Data name="Distance to Ref">
            <value>847.3232</value>
          </Data>
          <Data name="Inclination correction">
            <value>Not Set</value>
          </Data>
          <Data name="Pitch">
            <value>0.0</value>
          </Data>
          <Data name="Roll">
            <value>0.0</value>
          </Data>
          <Data name="Yaw">
            <value>0.0</value>
          </Data>
          <Data name="Inclined angle">
            <value>0°0000.0000</value>
          </Data>
          <Data name="Projected angle">
            <value>0°0000.0000</value>
          </Data>
        </ExtendedData>
        <Point>
          <coordinates>
            103.6821734,1.3531158,0
          </coordinates>
        </Point>
      </Placemark>
      <Placemark>
        <name>Sniffer 3</name>
        <description><![CDATA[Code: <br>Northing: 149,656.375<br>Easting: 353,279.197<br>Elevation: 24.879<br>Latitude: 1.3530832<br>Longitude: 103.6817367<br>Altitude: 24.879<br>Station Correction x: <br>Station Correction y: <br>Station Correction h: <br>Original Latitude: 1.353<br>Original Longitude: 103.682<br>Original Altitude: 26.945<br>Measuring type: Pole Height<br>Measuring height: 2<br>Antenna Height: 2.066<br>AGE: 2<br>Local time: 2026-05-19 16:27:22.000<br>Solution Status: FIXED<br>Used satellites: 37<br>Tracked satellites: 37<br>Measurement Method: Smooth Point<br>Repeat Count: 5<br>N: 0<br>E: 0.001<br>HRMS: 0.004<br>VRMS: 0.012<br>PDOP: 0.9<br>HDOP: 0.8<br>VDOP: 0.8<br>Base ID: 11<br>Base Latitude: 1.346<br>Base Longitude: 103.68<br>Base Altitude: 76.246<br>Distance to Ref: 831.237<br>Inclination correction: Not Set<br>Pitch: 0<br>Roll: 0<br>Yaw: 0<br>Inclined angle: 0°0000.0000<br>Projected angle: 0°0000.0000]]></description>
        <styleUrl>#icon-1529-0288D1</styleUrl>
        <ExtendedData>
          <Data name="Code">
            <value/>
          </Data>
          <Data name="Northing">
            <value>149656.3753</value>
          </Data>
          <Data name="Easting">
            <value>353279.1965</value>
          </Data>
          <Data name="Elevation">
            <value>24.8786</value>
          </Data>
          <Data name="Latitude">
            <value>1.3530832</value>
          </Data>
          <Data name="Longitude">
            <value>103.6817367</value>
          </Data>
          <Data name="Altitude">
            <value>24.8786</value>
          </Data>
          <Data name="Station Correction x">
            <value/>
          </Data>
          <Data name="Station Correction y">
            <value/>
          </Data>
          <Data name="Station Correction h">
            <value/>
          </Data>
          <Data name="Original Latitude">
            <value>1.3530832222222222</value>
          </Data>
          <Data name="Original Longitude">
            <value>103.68173672222223</value>
          </Data>
          <Data name="Original Altitude">
            <value>26.9446</value>
          </Data>
          <Data name="Measuring type">
            <value>Pole Height</value>
          </Data>
          <Data name="Measuring height">
            <value>2.0</value>
          </Data>
          <Data name="Antenna Height">
            <value>2.066</value>
          </Data>
          <Data name="AGE">
            <value>2.0</value>
          </Data>
          <Data name="Local time">
            <value>2026-05-19 16:27:22.000</value>
          </Data>
          <Data name="Solution Status">
            <value>FIXED</value>
          </Data>
          <Data name="Used satellites">
            <value>37.0</value>
          </Data>
          <Data name="Tracked satellites">
            <value>37.0</value>
          </Data>
          <Data name="Measurement Method">
            <value>Smooth Point</value>
          </Data>
          <Data name="Repeat Count">
            <value>5.0</value>
          </Data>
          <Data name="N">
            <value>4.0E-4</value>
          </Data>
          <Data name="E">
            <value>6.0E-4</value>
          </Data>
          <Data name="HRMS">
            <value>0.0038</value>
          </Data>
          <Data name="VRMS">
            <value>0.0116</value>
          </Data>
          <Data name="PDOP">
            <value>0.9</value>
          </Data>
          <Data name="HDOP">
            <value>0.8</value>
          </Data>
          <Data name="VDOP">
            <value>0.8</value>
          </Data>
          <Data name="Base ID">
            <value>11.0</value>
          </Data>
          <Data name="Base Latitude">
            <value>1.3457911388888888</value>
          </Data>
          <Data name="Base Longitude">
            <value>103.67997686111111</value>
          </Data>
          <Data name="Base Altitude">
            <value>76.2458</value>
          </Data>
          <Data name="Distance to Ref">
            <value>831.2375</value>
          </Data>
          <Data name="Inclination correction">
            <value>Not Set</value>
          </Data>
          <Data name="Pitch">
            <value>0.0</value>
          </Data>
          <Data name="Roll">
            <value>0.0</value>
          </Data>
          <Data name="Yaw">
            <value>0.0</value>
          </Data>
          <Data name="Inclined angle">
            <value>0°0000.0000</value>
          </Data>
          <Data name="Projected angle">
            <value>0°0000.0000</value>
          </Data>
        </ExtendedData>
        <Point>
          <coordinates>
            103.6817367,1.3530832,0
          </coordinates>
        </Point>
      </Placemark>
      <Placemark>
        <name>Sniffer 4</name>
        <description><![CDATA[Code: <br>Northing: 149,656.154<br>Easting: 353,277.707<br>Elevation: 24.877<br>Latitude: 1.3530812<br>Longitude: 103.6817234<br>Altitude: 24.877<br>Station Correction x: <br>Station Correction y: <br>Station Correction h: <br>Original Latitude: 1.353<br>Original Longitude: 103.682<br>Original Altitude: 26.943<br>Measuring type: Pole Height<br>Measuring height: 2<br>Antenna Height: 2.066<br>AGE: 1<br>Local time: 2026-05-19 16:28:56.000<br>Solution Status: FIXED<br>Used satellites: 37<br>Tracked satellites: 38<br>Measurement Method: Smooth Point<br>Repeat Count: 5<br>N: 0<br>E: 0.001<br>HRMS: 0.004<br>VRMS: 0.011<br>PDOP: 0.9<br>HDOP: 0.8<br>VDOP: 0.8<br>Base ID: 11<br>Base Latitude: 1.346<br>Base Longitude: 103.68<br>Base Altitude: 76.246<br>Distance to Ref: 830.673<br>Inclination correction: Not Set<br>Pitch: 0<br>Roll: 0<br>Yaw: 0<br>Inclined angle: 0°0000.0000<br>Projected angle: 0°0000.0000]]></description>
        <styleUrl>#icon-1529-0288D1</styleUrl>
        <ExtendedData>
          <Data name="Code">
            <value/>
          </Data>
          <Data name="Northing">
            <value>149656.1543</value>
          </Data>
          <Data name="Easting">
            <value>353277.707</value>
          </Data>
          <Data name="Elevation">
            <value>24.8774</value>
          </Data>
          <Data name="Latitude">
            <value>1.3530812</value>
          </Data>
          <Data name="Longitude">
            <value>103.6817234</value>
          </Data>
          <Data name="Altitude">
            <value>24.8774</value>
          </Data>
          <Data name="Station Correction x">
            <value/>
          </Data>
          <Data name="Station Correction y">
            <value/>
          </Data>
          <Data name="Station Correction h">
            <value/>
          </Data>
          <Data name="Original Latitude">
            <value>1.3530812222222222</value>
          </Data>
          <Data name="Original Longitude">
            <value>103.68172336111111</value>
          </Data>
          <Data name="Original Altitude">
            <value>26.9434</value>
          </Data>
          <Data name="Measuring type">
            <value>Pole Height</value>
          </Data>
          <Data name="Measuring height">
            <value>2.0</value>
          </Data>
          <Data name="Antenna Height">
            <value>2.066</value>
          </Data>
          <Data name="AGE">
            <value>1.0</value>
          </Data>
          <Data name="Local time">
            <value>2026-05-19 16:28:56.000</value>
          </Data>
          <Data name="Solution Status">
            <value>FIXED</value>
          </Data>
          <Data name="Used satellites">
            <value>37.0</value>
          </Data>
          <Data name="Tracked satellites">
            <value>38.0</value>
          </Data>
          <Data name="Measurement Method">
            <value>Smooth Point</value>
          </Data>
          <Data name="Repeat Count">
            <value>5.0</value>
          </Data>
          <Data name="N">
            <value>4.0E-4</value>
          </Data>
          <Data name="E">
            <value>6.0E-4</value>
          </Data>
          <Data name="HRMS">
            <value>0.0036</value>
          </Data>
          <Data name="VRMS">
            <value>0.011</value>
          </Data>
          <Data name="PDOP">
            <value>0.9</value>
          </Data>
          <Data name="HDOP">
            <value>0.8</value>
          </Data>
          <Data name="VDOP">
            <value>0.8</value>
          </Data>
          <Data name="Base ID">
            <value>11.0</value>
          </Data>
          <Data name="Base Latitude">
            <value>1.3457911388888888</value>
          </Data>
          <Data name="Base Longitude">
            <value>103.67997686111111</value>
          </Data>
          <Data name="Base Altitude">
            <value>76.2458</value>
          </Data>
          <Data name="Distance to Ref">
            <value>830.6728</value>
          </Data>
          <Data name="Inclination correction">
            <value>Not Set</value>
          </Data>
          <Data name="Pitch">
            <value>0.0</value>
          </Data>
          <Data name="Roll">
            <value>0.0</value>
          </Data>
          <Data name="Yaw">
            <value>0.0</value>
          </Data>
          <Data name="Inclined angle">
            <value>0°0000.0000</value>
          </Data>
          <Data name="Projected angle">
            <value>0°0000.0000</value>
          </Data>
        </ExtendedData>
        <Point>
          <coordinates>
            103.6817234,1.3530812,0
          </coordinates>
        </Point>
      </Placemark>
      <Placemark>
        <name>Sniffer 5</name>
        <description><![CDATA[Code: <br>Northing: 149,683.781<br>Easting: 353,292.204<br>Elevation: 24.477<br>Latitude: 1.3533311<br>Longitude: 103.6818534<br>Altitude: 24.477<br>Station Correction x: <br>Station Correction y: <br>Station Correction h: <br>Original Latitude: 1.353<br>Original Longitude: 103.682<br>Original Altitude: 26.544<br>Measuring type: Pole Height<br>Measuring height: 2<br>Antenna Height: 2.066<br>AGE: 1<br>Local time: 2026-05-19 16:30:14.000<br>Solution Status: FIXED<br>Used satellites: 38<br>Tracked satellites: 38<br>Measurement Method: Smooth Point<br>Repeat Count: 5<br>N: 0<br>E: 0.001<br>HRMS: 0.004<br>VRMS: 0.011<br>PDOP: 0.9<br>HDOP: 0.8<br>VDOP: 0.8<br>Base ID: 11<br>Base Latitude: 1.346<br>Base Longitude: 103.68<br>Base Altitude: 76.246<br>Distance to Ref: 860.93<br>Inclination correction: Not Set<br>Pitch: 0<br>Roll: 0<br>Yaw: 0<br>Inclined angle: 0°0000.0000<br>Projected angle: 0°0000.0000]]></description>
        <styleUrl>#icon-1529-0288D1</styleUrl>
        <ExtendedData>
          <Data name="Code">
            <value/>
          </Data>
          <Data name="Northing">
            <value>149683.7813</value>
          </Data>
          <Data name="Easting">
            <value>353292.2035</value>
          </Data>
          <Data name="Elevation">
            <value>24.4775</value>
          </Data>
          <Data name="Latitude">
            <value>1.3533311</value>
          </Data>
          <Data name="Longitude">
            <value>103.6818534</value>
          </Data>
          <Data name="Altitude">
            <value>24.4775</value>
          </Data>
          <Data name="Station Correction x">
            <value/>
          </Data>
          <Data name="Station Correction y">
            <value/>
          </Data>
          <Data name="Station Correction h">
            <value/>
          </Data>
          <Data name="Original Latitude">
            <value>1.3533310833333334</value>
          </Data>
          <Data name="Original Longitude">
            <value>103.68185344444444</value>
          </Data>
          <Data name="Original Altitude">
            <value>26.5435</value>
          </Data>
          <Data name="Measuring type">
            <value>Pole Height</value>
          </Data>
          <Data name="Measuring height">
            <value>2.0</value>
          </Data>
          <Data name="Antenna Height">
            <value>2.066</value>
          </Data>
          <Data name="AGE">
            <value>1.0</value>
          </Data>
          <Data name="Local time">
            <value>2026-05-19 16:30:14.000</value>
          </Data>
          <Data name="Solution Status">
            <value>FIXED</value>
          </Data>
          <Data name="Used satellites">
            <value>38.0</value>
          </Data>
          <Data name="Tracked satellites">
            <value>38.0</value>
          </Data>
          <Data name="Measurement Method">
            <value>Smooth Point</value>
          </Data>
          <Data name="Repeat Count">
            <value>5.0</value>
          </Data>
          <Data name="N">
            <value>4.0E-4</value>
          </Data>
          <Data name="E">
            <value>6.0E-4</value>
          </Data>
          <Data name="HRMS">
            <value>0.0036</value>
          </Data>
          <Data name="VRMS">
            <value>0.011</value>
          </Data>
          <Data name="PDOP">
            <value>0.9</value>
          </Data>
          <Data name="HDOP">
            <value>0.8</value>
          </Data>
          <Data name="VDOP">
            <value>0.8</value>
          </Data>
          <Data name="Base ID">
            <value>11.0</value>
          </Data>
          <Data name="Base Latitude">
            <value>1.3457911388888888</value>
          </Data>
          <Data name="Base Longitude">
            <value>103.67997686111111</value>
          </Data>
          <Data name="Base Altitude">
            <value>76.2458</value>
          </Data>
          <Data name="Distance to Ref">
            <value>860.9296</value>
          </Data>
          <Data name="Inclination correction">
            <value>Not Set</value>
          </Data>
          <Data name="Pitch">
            <value>0.0</value>
          </Data>
          <Data name="Roll">
            <value>0.0</value>
          </Data>
          <Data name="Yaw">
            <value>0.0</value>
          </Data>
          <Data name="Inclined angle">
            <value>0°0000.0000</value>
          </Data>
          <Data name="Projected angle">
            <value>0°0000.0000</value>
          </Data>
        </ExtendedData>
        <Point>
          <coordinates>
            103.6818534,1.3533311,0
          </coordinates>
        </Point>
      </Placemark>
      <Placemark>
        <name>Sniffer 6</name>
        <description><![CDATA[Code: <br>Northing: 149,703.613<br>Easting: 353,317.258<br>Elevation: 24.426<br>Latitude: 1.3535105<br>Longitude: 103.6820784<br>Altitude: 24.426<br>Station Correction x: <br>Station Correction y: <br>Station Correction h: <br>Original Latitude: 1.354<br>Original Longitude: 103.682<br>Original Altitude: 26.492<br>Measuring type: Pole Height<br>Measuring height: 2<br>Antenna Height: 2.066<br>AGE: 1<br>Local time: 2026-05-19 16:32:02.000<br>Solution Status: FIXED<br>Used satellites: 36<br>Tracked satellites: 37<br>Measurement Method: Smooth Point<br>Repeat Count: 5<br>N: 0<br>E: 0.001<br>HRMS: 0.004<br>VRMS: 0.012<br>PDOP: 0.96<br>HDOP: 0.84<br>VDOP: 0.84<br>Base ID: 11<br>Base Latitude: 1.346<br>Base Longitude: 103.68<br>Base Altitude: 76.246<br>Distance to Ref: 886.435<br>Inclination correction: Not Set<br>Pitch: 0<br>Roll: 0<br>Yaw: 0<br>Inclined angle: 0°0000.0000<br>Projected angle: 0°0000.0000]]></description>
        <styleUrl>#icon-1529-0288D1</styleUrl>
        <ExtendedData>
          <Data name="Code">
            <value/>
          </Data>
          <Data name="Northing">
            <value>149703.6134</value>
          </Data>
          <Data name="Easting">
            <value>353317.2582</value>
          </Data>
          <Data name="Elevation">
            <value>24.4263</value>
          </Data>
          <Data name="Latitude">
            <value>1.3535105</value>
          </Data>
          <Data name="Longitude">
            <value>103.6820784</value>
          </Data>
          <Data name="Altitude">
            <value>24.4263</value>
          </Data>
          <Data name="Station Correction x">
            <value/>
          </Data>
          <Data name="Station Correction y">
            <value/>
          </Data>
          <Data name="Station Correction h">
            <value/>
          </Data>
          <Data name="Original Latitude">
            <value>1.3535105</value>
          </Data>
          <Data name="Original Longitude">
            <value>103.68207841666667</value>
          </Data>
          <Data name="Original Altitude">
            <value>26.4923</value>
          </Data>
          <Data name="Measuring type">
            <value>Pole Height</value>
          </Data>
          <Data name="Measuring height">
            <value>2.0</value>
          </Data>
          <Data name="Antenna Height">
            <value>2.066</value>
          </Data>
          <Data name="AGE">
            <value>1.0</value>
          </Data>
          <Data name="Local time">
            <value>2026-05-19 16:32:02.000</value>
          </Data>
          <Data name="Solution Status">
            <value>FIXED</value>
          </Data>
          <Data name="Used satellites">
            <value>36.0</value>
          </Data>
          <Data name="Tracked satellites">
            <value>37.0</value>
          </Data>
          <Data name="Measurement Method">
            <value>Smooth Point</value>
          </Data>
          <Data name="Repeat Count">
            <value>5.0</value>
          </Data>
          <Data name="N">
            <value>4.0E-4</value>
          </Data>
          <Data name="E">
            <value>6.0E-4</value>
          </Data>
          <Data name="HRMS">
            <value>0.0041</value>
          </Data>
          <Data name="VRMS">
            <value>0.0118</value>
          </Data>
          <Data name="PDOP">
            <value>0.96</value>
          </Data>
          <Data name="HDOP">
            <value>0.84</value>
          </Data>
          <Data name="VDOP">
            <value>0.84</value>
          </Data>
          <Data name="Base ID">
            <value>11.0</value>
          </Data>
          <Data name="Base Latitude">
            <value>1.3457911388888888</value>
          </Data>
          <Data name="Base Longitude">
            <value>103.67997686111111</value>
          </Data>
          <Data name="Base Altitude">
            <value>76.2458</value>
          </Data>
          <Data name="Distance to Ref">
            <value>886.4348</value>
          </Data>
          <Data name="Inclination correction">
            <value>Not Set</value>
          </Data>
          <Data name="Pitch">
            <value>0.0</value>
          </Data>
          <Data name="Roll">
            <value>0.0</value>
          </Data>
          <Data name="Yaw">
            <value>0.0</value>
          </Data>
          <Data name="Inclined angle">
            <value>0°0000.0000</value>
          </Data>
          <Data name="Projected angle">
            <value>0°0000.0000</value>
          </Data>
        </ExtendedData>
        <Point>
          <coordinates>
            103.6820784,1.3535105,0
          </coordinates>
        </Point>
      </Placemark>
      <Placemark>
        <name>Sniffer 7</name>
        <description><![CDATA[Code: <br>Northing: 149,682.509<br>Easting: 353,335.556<br>Elevation: 25.873<br>Latitude: 1.3533198<br>Longitude: 103.6822429<br>Altitude: 25.873<br>Station Correction x: <br>Station Correction y: <br>Station Correction h: <br>Original Latitude: 1.353<br>Original Longitude: 103.682<br>Original Altitude: 27.939<br>Measuring type: Pole Height<br>Measuring height: 2<br>Antenna Height: 2.066<br>AGE: 1<br>Local time: 2026-05-19 16:35:15.000<br>Solution Status: FIXED<br>Used satellites: 30<br>Tracked satellites: 32<br>Measurement Method: Smooth Point<br>Repeat Count: 5<br>N: 0.001<br>E: 0.001<br>HRMS: 0.005<br>VRMS: 0.013<br>PDOP: 1.1<br>HDOP: 0.9<br>VDOP: 0.9<br>Base ID: 11<br>Base Latitude: 1.346<br>Base Longitude: 103.68<br>Base Altitude: 76.246<br>Distance to Ref: 871.186<br>Inclination correction: Not Set<br>Pitch: 0<br>Roll: 0<br>Yaw: 0<br>Inclined angle: 0°0000.0000<br>Projected angle: 0°0000.0000]]></description>
        <styleUrl>#icon-1529-0288D1</styleUrl>
        <ExtendedData>
          <Data name="Code">
            <value/>
          </Data>
          <Data name="Northing">
            <value>149682.5086</value>
          </Data>
          <Data name="Easting">
            <value>353335.556</value>
          </Data>
          <Data name="Elevation">
            <value>25.8726</value>
          </Data>
          <Data name="Latitude">
            <value>1.3533198</value>
          </Data>
          <Data name="Longitude">
            <value>103.6822429</value>
          </Data>
          <Data name="Altitude">
            <value>25.8726</value>
          </Data>
          <Data name="Station Correction x">
            <value/>
          </Data>
          <Data name="Station Correction y">
            <value/>
          </Data>
          <Data name="Station Correction h">
            <value/>
          </Data>
          <Data name="Original Latitude">
            <value>1.353319777777778</value>
          </Data>
          <Data name="Original Longitude">
            <value>103.6822428888889</value>
          </Data>
          <Data name="Original Altitude">
            <value>27.9386</value>
          </Data>
          <Data name="Measuring type">
            <value>Pole Height</value>
          </Data>
          <Data name="Measuring height">
            <value>2.0</value>
          </Data>
          <Data name="Antenna Height">
            <value>2.066</value>
          </Data>
          <Data name="AGE">
            <value>1.0</value>
          </Data>
          <Data name="Local time">
            <value>2026-05-19 16:35:15.000</value>
          </Data>
          <Data name="Solution Status">
            <value>FIXED</value>
          </Data>
          <Data name="Used satellites">
            <value>30.0</value>
          </Data>
          <Data name="Tracked satellites">
            <value>32.0</value>
          </Data>
          <Data name="Measurement Method">
            <value>Smooth Point</value>
          </Data>
          <Data name="Repeat Count">
            <value>5.0</value>
          </Data>
          <Data name="N">
            <value>6.0E-4</value>
          </Data>
          <Data name="E">
            <value>8.0E-4</value>
          </Data>
          <Data name="HRMS">
            <value>0.005</value>
          </Data>
          <Data name="VRMS">
            <value>0.013</value>
          </Data>
          <Data name="PDOP">
            <value>1.1</value>
          </Data>
          <Data name="HDOP">
            <value>0.9</value>
          </Data>
          <Data name="VDOP">
            <value>0.9</value>
          </Data>
          <Data name="Base ID">
            <value>11.0</value>
          </Data>
          <Data name="Base Latitude">
            <value>1.3457911388888888</value>
          </Data>
          <Data name="Base Longitude">
            <value>103.67997686111111</value>
          </Data>
          <Data name="Base Altitude">
            <value>76.2458</value>
          </Data>
          <Data name="Distance to Ref">
            <value>871.1855</value>
          </Data>
          <Data name="Inclination correction">
            <value>Not Set</value>
          </Data>
          <Data name="Pitch">
            <value>0.0</value>
          </Data>
          <Data name="Roll">
            <value>0.0</value>
          </Data>
          <Data name="Yaw">
            <value>0.0</value>
          </Data>
          <Data name="Inclined angle">
            <value>0°0000.0000</value>
          </Data>
          <Data name="Projected angle">
            <value>0°0000.0000</value>
          </Data>
        </ExtendedData>
        <Point>
          <coordinates>
            103.6822429,1.3533198,0
          </coordinates>
        </Point>
      </Placemark>
      <Placemark>
        <name>Sniffer 8</name>
        <description><![CDATA[Code: <br>Northing: 149,685.633<br>Easting: 353,319.652<br>Elevation: 24.753<br>Latitude: 1.353348<br>Longitude: 103.6821<br>Altitude: 24.753<br>Station Correction x: <br>Station Correction y: <br>Station Correction h: <br>Original Latitude: 1.353<br>Original Longitude: 103.682<br>Original Altitude: 26.819<br>Measuring type: Pole Height<br>Measuring height: 2<br>Antenna Height: 2.066<br>AGE: 1<br>Local time: 2026-05-19 16:36:36.000<br>Solution Status: FIXED<br>Used satellites: 38<br>Tracked satellites: 38<br>Measurement Method: Smooth Point<br>Repeat Count: 5<br>N: 0<br>E: 0.001<br>HRMS: 0.004<br>VRMS: 0.012<br>PDOP: 0.9<br>HDOP: 0.8<br>VDOP: 0.8<br>Base ID: 11<br>Base Latitude: 1.346<br>Base Longitude: 103.68<br>Base Altitude: 76.246<br>Distance to Ref: 869.772<br>Inclination correction: Not Set<br>Pitch: 0<br>Roll: 0<br>Yaw: 0<br>Inclined angle: 0°0000.0000<br>Projected angle: 0°0000.0000]]></description>
        <styleUrl>#icon-1529-0288D1</styleUrl>
        <ExtendedData>
          <Data name="Code">
            <value/>
          </Data>
          <Data name="Northing">
            <value>149685.6334</value>
          </Data>
          <Data name="Easting">
            <value>353319.6519</value>
          </Data>
          <Data name="Elevation">
            <value>24.7531</value>
          </Data>
          <Data name="Latitude">
            <value>1.353348</value>
          </Data>
          <Data name="Longitude">
            <value>103.6821</value>
          </Data>
          <Data name="Altitude">
            <value>24.7531</value>
          </Data>
          <Data name="Station Correction x">
            <value/>
          </Data>
          <Data name="Station Correction y">
            <value/>
          </Data>
          <Data name="Station Correction h">
            <value/>
          </Data>
          <Data name="Original Latitude">
            <value>1.3533479722222221</value>
          </Data>
          <Data name="Original Longitude">
            <value>103.6821</value>
          </Data>
          <Data name="Original Altitude">
            <value>26.8191</value>
          </Data>
          <Data name="Measuring type">
            <value>Pole Height</value>
          </Data>
          <Data name="Measuring height">
            <value>2.0</value>
          </Data>
          <Data name="Antenna Height">
            <value>2.066</value>
          </Data>
          <Data name="AGE">
            <value>1.0</value>
          </Data>
          <Data name="Local time">
            <value>2026-05-19 16:36:36.000</value>
          </Data>
          <Data name="Solution Status">
            <value>FIXED</value>
          </Data>
          <Data name="Used satellites">
            <value>38.0</value>
          </Data>
          <Data name="Tracked satellites">
            <value>38.0</value>
          </Data>
          <Data name="Measurement Method">
            <value>Smooth Point</value>
          </Data>
          <Data name="Repeat Count">
            <value>5.0</value>
          </Data>
          <Data name="N">
            <value>4.0E-4</value>
          </Data>
          <Data name="E">
            <value>6.0E-4</value>
          </Data>
          <Data name="HRMS">
            <value>0.0043</value>
          </Data>
          <Data name="VRMS">
            <value>0.0118</value>
          </Data>
          <Data name="PDOP">
            <value>0.9</value>
          </Data>
          <Data name="HDOP">
            <value>0.8</value>
          </Data>
          <Data name="VDOP">
            <value>0.8</value>
          </Data>
          <Data name="Base ID">
            <value>11.0</value>
          </Data>
          <Data name="Base Latitude">
            <value>1.3457911388888888</value>
          </Data>
          <Data name="Base Longitude">
            <value>103.67997686111111</value>
          </Data>
          <Data name="Base Altitude">
            <value>76.2458</value>
          </Data>
          <Data name="Distance to Ref">
            <value>869.7716</value>
          </Data>
          <Data name="Inclination correction">
            <value>Not Set</value>
          </Data>
          <Data name="Pitch">
            <value>0.0</value>
          </Data>
          <Data name="Roll">
            <value>0.0</value>
          </Data>
          <Data name="Yaw">
            <value>0.0</value>
          </Data>
          <Data name="Inclined angle">
            <value>0°0000.0000</value>
          </Data>
          <Data name="Projected angle">
            <value>0°0000.0000</value>
          </Data>
        </ExtendedData>
        <Point>
          <coordinates>
            103.6821,1.353348,0
          </coordinates>
        </Point>
      </Placemark>
      <Placemark>
        <name>Sniffer 9</name>
        <description><![CDATA[Code: <br>Northing: 149,690.602<br>Easting: 353,294.389<br>Elevation: 24.778<br>Latitude: 1.3533928<br>Longitude: 103.681873<br>Altitude: 24.778<br>Station Correction x: <br>Station Correction y: <br>Station Correction h: <br>Original Latitude: 1.353<br>Original Longitude: 103.682<br>Original Altitude: 26.844<br>Measuring type: Pole Height<br>Measuring height: 2<br>Antenna Height: 2.066<br>AGE: 1<br>Local time: 2026-05-19 16:38:26.000<br>Solution Status: FIXED<br>Used satellites: 37<br>Tracked satellites: 37<br>Measurement Method: Smooth Point<br>Repeat Count: 5<br>N: 0.001<br>E: 0.001<br>HRMS: 0.004<br>VRMS: 0.012<br>PDOP: 0.9<br>HDOP: 0.8<br>VDOP: 0.8<br>Base ID: 11<br>Base Latitude: 1.346<br>Base Longitude: 103.68<br>Base Altitude: 76.246<br>Distance to Ref: 868.046<br>Inclination correction: Not Set<br>Pitch: 0<br>Roll: 0<br>Yaw: 0<br>Inclined angle: 0°0000.0000<br>Projected angle: 0°0000.0000]]></description>
        <styleUrl>#icon-1529-0288D1</styleUrl>
        <ExtendedData>
          <Data name="Code">
            <value/>
          </Data>
          <Data name="Northing">
            <value>149690.6018</value>
          </Data>
          <Data name="Easting">
            <value>353294.3889</value>
          </Data>
          <Data name="Elevation">
            <value>24.7783</value>
          </Data>
          <Data name="Latitude">
            <value>1.3533928</value>
          </Data>
          <Data name="Longitude">
            <value>103.681873</value>
          </Data>
          <Data name="Altitude">
            <value>24.7783</value>
          </Data>
          <Data name="Station Correction x">
            <value/>
          </Data>
          <Data name="Station Correction y">
            <value/>
          </Data>
          <Data name="Station Correction h">
            <value/>
          </Data>
          <Data name="Original Latitude">
            <value>1.35339275</value>
          </Data>
          <Data name="Original Longitude">
            <value>103.68187302777778</value>
          </Data>
          <Data name="Original Altitude">
            <value>26.8443</value>
          </Data>
          <Data name="Measuring type">
            <value>Pole Height</value>
          </Data>
          <Data name="Measuring height">
            <value>2.0</value>
          </Data>
          <Data name="Antenna Height">
            <value>2.066</value>
          </Data>
          <Data name="AGE">
            <value>1.0</value>
          </Data>
          <Data name="Local time">
            <value>2026-05-19 16:38:26.000</value>
          </Data>
          <Data name="Solution Status">
            <value>FIXED</value>
          </Data>
          <Data name="Used satellites">
            <value>37.0</value>
          </Data>
          <Data name="Tracked satellites">
            <value>37.0</value>
          </Data>
          <Data name="Measurement Method">
            <value>Smooth Point</value>
          </Data>
          <Data name="Repeat Count">
            <value>5.0</value>
          </Data>
          <Data name="N">
            <value>6.0E-4</value>
          </Data>
          <Data name="E">
            <value>6.0E-4</value>
          </Data>
          <Data name="HRMS">
            <value>0.0042</value>
          </Data>
          <Data name="VRMS">
            <value>0.012</value>
          </Data>
          <Data name="PDOP">
            <value>0.9</value>
          </Data>
          <Data name="HDOP">
            <value>0.8</value>
          </Data>
          <Data name="VDOP">
            <value>0.8</value>
          </Data>
          <Data name="Base ID">
            <value>11.0</value>
          </Data>
          <Data name="Base Latitude">
            <value>1.3457911388888888</value>
          </Data>
          <Data name="Base Longitude">
            <value>103.67997686111111</value>
          </Data>
          <Data name="Base Altitude">
            <value>76.2458</value>
          </Data>
          <Data name="Distance to Ref">
            <value>868.0462</value>
          </Data>
          <Data name="Inclination correction">
            <value>Not Set</value>
          </Data>
          <Data name="Pitch">
            <value>0.0</value>
          </Data>
          <Data name="Roll">
            <value>0.0</value>
          </Data>
          <Data name="Yaw">
            <value>0.0</value>
          </Data>
          <Data name="Inclined angle">
            <value>0°0000.0000</value>
          </Data>
          <Data name="Projected angle">
            <value>0°0000.0000</value>
          </Data>
        </ExtendedData>
        <Point>
          <coordinates>
            103.681873,1.3533928,0
          </coordinates>
        </Point>
      </Placemark>
    </Folder>
  </Document>
</kml>
